      2.10          N: GNSS NAV DATA                        RINEX VERSION / TYPE
fic2rin                                 12/14/2023 00:17:59 PGM / RUN BY / DATE
                                                            END OF HEADER
8  23 12 13  1 59 44.0 -.156678725034D-03 -.193267624127D-11  .000000000000D+00
     .200000000000D+01  .158281250000D+03  .458876256895D-08  .276131108972D+01
     .826269388199D-05  .899656477850D-02  .499002635479D-05  .515356420326D+04
     .266384000000D+06 -.186264514923D-06 -.233417076614D+01 -.856816768646D-07
     .955868439117D+00  .280343750000D+03  .281371208972D+00 -.805747848346D-08
     .306441335940D-09  .100000000000D+01  .229200000000D+04  .000000000000D+00
     .240000000000D+01  .000000000000D+00  .512227416039D-08  .200000000000D+01
     .259200000000D+06  .400000000000D+01
23 23 12 13  6  0  0.0  .115178525448D-03  .682121026330D-11  .000000000000D+00
     .229000000000D+03 -.147718750000D+03  .390337687703D-08  .180839920219D+01
    -.759400427341D-05  .392691232264D-02  .973977148533D-05  .515370713234D+04
     .280800000000D+06  .130385160446D-07 -.237289553457D+00  .102445483208D-06
     .977168147456D+00  .200593750000D+03 -.301125733203D+01 -.769710632966D-08
    -.410731394325D-10  .100000000000D+01  .229200000000D+04  .000000000000D+00
     .240000000000D+01  .000000000000D+00 -.838190317154D-08  .741000000000D+03
     .273600000000D+06  .400000000000D+01
2  23 12 13  8  0  0.0 -.516224652529D-03  .534328137292D-11  .000000000000D+00
     .880000000000D+02 -.402812500000D+02  .473805450185D-08  .113221748917D+00
    -.221841037273D-05  .162586369552D-01 -.514090061188D-06  .515390143776D+04
     .288000000000D+06 -.225380063057D-06 -.133862152408D+01 -.208616256714D-06
     .967358519554D+00  .396437500000D+03 -.129068274461D+01 -.877286542506D-08
    -.721458623076D-10  .100000000000D+01  .229200000000D+04  .000000000000D+00
     .240000000000D+01  .000000000000D+00 -.176951289177D-07  .880000000000D+02
     .280800000000D+06  .400000000000D+01
1  23 12 13  8  0  0.0  .163909513503D-03  .568434188608D-12  .000000000000D+00
     .550000000000D+02 -.713125000000D+02  .410552815458D-08 -.251091867789D+01
    -.378675758839D-05  .130220422288D-01 -.927597284317D-06  .515402291679D+04
     .288000000000D+06  .139698386192D-06 -.123554904583D+01 -.875443220139D-07
     .990296680049D+00  .412625000000D+03  .100066838156D+01 -.804426364730D-08
    -.892894335490D-11  .100000000000D+01  .229200000000D+04  .000000000000D+00
     .340000000000D+01  .630000000000D+02  .512227416039D-08  .550000000000D+02
     .280800000000D+06  .400000000000D+01
3  23 12 13  8  0  0.0  .511296093464D-04  .275122147286D-10  .000000000000D+00
     .700000000000D+02 -.164656250000D+03  .371729769751D-08  .268451969778D+01
    -.849179923534D-05  .505613477435D-02  .976026058197D-05  .515355722046D+04
     .288000000000D+06 -.558793544769D-08 -.206591164071D+00 -.102445483208D-06
     .982339938836D+00  .199468750000D+03  .110870510846D+01 -.748995484383D-08
     .357157734196D-10  .100000000000D+01  .229200000000D+04  .000000000000D+00
     .240000000000D+01  .000000000000D+00  .186264514923D-08  .700000000000D+02
     .280800000000D+06  .400000000000D+01
4  23 12 13  8  0  0.0  .238200183958D-03  .101181285572D-10  .000000000000D+00
     .610000000000D+02 -.581250000000D+01  .450340187048D-08 -.595350835598D+00
    -.400468707085D-06  .275796849746D-02  .869296491146D-05  .515359550858D+04
     .288000000000D+06  .614672899246D-07  .872736137009D+00  .149011611938D-07
     .963741682818D+00  .213375000000D+03 -.304070442029D+01 -.775246577846D-08
     .597167731576D-09  .100000000000D+01  .229200000000D+04  .000000000000D+00
     .240000000000D+01  .000000000000D+00 -.465661287308D-08  .573000000000D+03
     .280800000000D+06  .400000000000D+01
9  23 12 13  8  0  0.0  .253105536103D-04  .117097442853D-10  .000000000000D+00
     .700000000000D+01 -.123125000000D+02  .462554981557D-08  .135471932687D+00
    -.709667801857D-06  .295226112939D-02  .900775194168D-05  .515375623322D+04
     .288000000000D+06 -.167638063431D-07  .814490444282D+00  .279396772385D-07
     .957244010747D+00  .202968750000D+03  .200027703404D+01 -.785854162552D-08
     .637883713274D-09  .100000000000D+01  .229200000000D+04  .000000000000D+00
     .240000000000D+01  .000000000000D+00  .139698386192D-08  .700000000000D+01
     .280800000000D+06  .400000000000D+01
6  23 12 13  8  0  0.0  .479422044009D-03 -.114823706099D-10  .000000000000D+00
     .100000000000D+02 -.526562500000D+02  .417053086221D-08 -.229705338188D+01
    -.258535146713D-05  .308802851941D-02 -.601634383202D-06  .515379311752D+04
     .288000000000D+06 -.391155481339D-07 -.124391230711D+01  .115483999252D-06
     .989429705056D+00  .407531250000D+03 -.818511849550D+00 -.816891169653D-08
    -.757174396496D-10  .100000000000D+01  .229200000000D+04  .000000000000D+00
     .240000000000D+01  .000000000000D+00  .372529029846D-08  .100000000000D+02
     .280800000000D+06  .400000000000D+01
5  23 12 13  8  0  0.0 -.153937377036D-03 -.147792889038D-11  .000000000000D+00
     .790000000000D+02 -.145125000000D+03  .412838624957D-08 -.121647358301D-01
    -.744871795177D-05  .581554649398D-02  .854954123497D-05  .515377827644D+04
     .288000000000D+06 -.484287738800D-07 -.255734720949D+00  .260770320892D-07
     .969319956227D+00  .219812500000D+03  .123848456504D+01 -.787175646168D-08
    -.157149403046D-10  .100000000000D+01  .229200000000D+04  .000000000000D+00
     .240000000000D+01  .000000000000D+00 -.111758708954D-07  .790000000000D+02
     .280800000000D+06  .400000000000D+01
15 23 12 13  8  0  0.0  .106450635940D-03  .386535248253D-11  .000000000000D+00
     .160000000000D+02 -.884375000000D+01  .507056835238D-08 -.135292897700D+01
    -.245869159698D-06  .154328854987D-01  .941753387451D-05  .515358062744D+04
     .288000000000D+06  .137835741043D-06  .690912241851D+00  .342726707458D-06
     .933969787248D+00  .182843750000D+03  .127992827058D+01 -.811069498586D-08
     .561451958156D-09  .100000000000D+01  .229200000000D+04  .000000000000D+00
     .240000000000D+01  .000000000000D+00 -.102445483208D-07  .160000000000D+02
     .280800000000D+06  .400000000000D+01
12 23 12 13  8  0  0.0 -.456923618913D-03 -.397903932026D-11  .000000000000D+00
     .540000000000D+02  .622187500000D+02  .398766610230D-08  .242172150802D+01
     .322610139847D-05  .879843882285D-02  .114589929581D-04  .515374936676D+04
     .288000000000D+06  .132247805595D-06  .300205017037D+01 -.558793544769D-08
     .964106103026D+00  .156218750000D+03  .139692229714D+01 -.744816738893D-08
    -.463233581252D-09  .100000000000D+01  .229200000000D+04  .000000000000D+00
     .240000000000D+01  .000000000000D+00 -.125728547573D-07  .540000000000D+02
     .280800000000D+06  .400000000000D+01
8  23 12 13  8  0  0.0 -.156719703227D-03 -.193267624127D-11  .000000000000D+00
     .440000000000D+02  .156906250000D+03  .446304304651D-08 -.368762873140D+00
     .821985304356D-05  .899750331882D-02  .418350100517D-05  .515356589127D+04
     .288000000000D+06  .167638063431D-06 -.233434614369D+01  .298023223877D-07
     .955874925696D+00  .295250000000D+03  .281336928412D+00 -.831498920982D-08
     .254296306748D-09  .100000000000D+01  .229200000000D+04  .000000000000D+00
     .240000000000D+01  .000000000000D+00  .512227416039D-08  .440000000000D+02
     .280800000000D+06  .400000000000D+01
7  23 12 13  8  0  0.0 -.106571242213D-04 -.966338120634D-11  .000000000000D+00
     .118000000000D+03 -.971875000000D+01  .504556731099D-08  .310026477020D+01
    -.646337866783D-06  .176873167511D-01  .523775815964D-05  .515367933655D+04
     .288000000000D+06  .838190317154D-07  .188690500686D+01 -.223517417908D-06
     .949794612449D+00  .269906250000D+03 -.216305757011D+01 -.779211028696D-08
    -.291440711104D-09  .100000000000D+01  .229200000000D+04  .000000000000D+00
     .340000000000D+01  .000000000000D+00 -.111758708954D-07  .118000000000D+03
     .280800000000D+06  .400000000000D+01
31 23 12 13  8  0  0.0 -.226553063840D-03 -.341060513165D-12  .000000000000D+00
     .100000000000D+02 -.138125000000D+02  .503413826349D-08  .224967399888D+01
    -.938773155212D-06  .106376918266D-01  .583007931709D-05  .515364688873D+04
     .288000000000D+06 -.139698386192D-06  .190772360094D+01 -.104308128357D-06
     .953832702298D+00  .268406250000D+03  .639024053163D+00 -.801426239763D-08
    -.421088968617D-09  .100000000000D+01  .229200000000D+04  .000000000000D+00
     .240000000000D+01  .000000000000D+00 -.135041773319D-07  .100000000000D+02
     .280800000000D+06  .400000000000D+01
29 23 12 13  8  0  0.0 -.609799288213D-03  .341060513165D-12  .000000000000D+00
     .160000000000D+02  .137093750000D+03  .405802617594D-08 -.390330130177D+00
     .704079866409D-05  .250435969792D-02  .386126339436D-05  .515368156242D+04
     .288000000000D+06  .000000000000D+00 -.222762307040D+01 -.186264514923D-07
     .973837271706D+00  .309468750000D+03  .255246062423D+01 -.805069248651D-08
     .294297972978D-09  .100000000000D+01  .229200000000D+04  .000000000000D+00
     .240000000000D+01  .000000000000D+00 -.102445483208D-07  .160000000000D+02
     .280800000000D+06  .400000000000D+01
26 23 12 13  8  0  0.0  .209623482078D-03 -.306954461848D-11  .000000000000D+00
     .900000000000D+01  .533125000000D+02  .485591655413D-08  .143815719307D+01
     .291876494884D-05  .868686393369D-02  .108350068331D-04  .515380327606D+04
     .288000000000D+06 -.540167093277D-07  .285811840772D+01  .707805156708D-07
     .932609905415D+00  .158187500000D+03  .507504344347D+00 -.801747681723D-08
    -.677171064036D-09  .100000000000D+01  .229200000000D+04  .000000000000D+00
     .240000000000D+01  .000000000000D+00  .698491930962D-08  .900000000000D+01
     .280800000000D+06  .400000000000D+01
